{"type": "FeatureCollection", "features": [ {"type": "Feature", "properties": {"norad_id": 66560, "name": "STARLINK-35411", "group": "last-30-days", "lat": -15.738634160605935, "lon": -76.72657611587586, "alt_km": 415.9480038891179, "timestamp": "2025-12-18T19:29:51.285553+00:00", "meta": {"OBJECT_NAME": "STARLINK-35411", "OBJECT_ID": "2025-268D", "EPOCH": "2025-12-18T00:04:28.174368", "MEAN_MOTION": 15.5060011, "ECCENTRICITY": 9.925e-05, "INCLINATION": 43.0001, "RA_OF_ASC_NODE": 90.4058, "ARG_OF_PERICENTER": 284.0327, "MEAN_ANOMALY": 76.0423, "EPHEMERIS_TYPE": 0, "CLASSIFICATION_TYPE": "U", "NORAD_CAT_ID": 66560, "ELEMENT_SET_NO": 999, "REV_AT_EPOCH": 544, "BSTAR": 0.0019422689, "MEAN_MOTION_DOT": 0.00115382, "MEAN_MOTION_DDOT": 0}, "tle": {"line1": "1 66560U 25268D   25352.00310387  .00115382  00000+0  19423-2 0  9995", "line2": "2 66560  43.0001  90.4058 0000992 284.0327  76.0423 15.50600110  5449"}}, "geometry": {"type": "Point", "coordinates": [-76.72657611587586, -15.738634160605935]}}, {"type": "Feature", "properties": {"norad_id": 66561, "name": "STARLINK-35305", "group": "last-30-days", "lat": -18.20502110492538, "lon": -73.67266930025376, "alt_km": 416.0571964929768, "timestamp": "2025-12-18T19:29:51.285563+00:00", "meta": {"OBJECT_NAME": "STARLINK-35305", "OBJECT_ID": "2025-268E", "EPOCH": "2025-12-18T00:03:29.017152", "MEAN_MOTION": 15.50603624, "ECCENTRICITY": 9.191e-05, "INCLINATION": 43.0009, "RA_OF_ASC_NODE": 90.4008, "ARG_OF_PERICENTER": 275.7133, "MEAN_ANOMALY": 84.3622, "EPHEMERIS_TYPE": 0, "CLASSIFICATION_TYPE": "U", "NORAD_CAT_ID": 66561, "ELEMENT_SET_NO": 999, "REV_AT_EPOCH": 544, "BSTAR": 0.0018887599, "MEAN_MOTION_DOT": 0.00112161, "MEAN_MOTION_DDOT": 0}, "tle": {"line1": "1 66561U 25268E   25352.00241918  .00112161  00000+0  18888-2 0  9995", "line2": "2 66561  43.0009  90.4008 0000919 275.7133  84.3622 15.50603624  5440"}}, "geometry": {"type": "Point", "coordinates": [-73.67266930025376, -18.20502110492538]}}, {"type": "Feature", "properties": {"norad_id": 66562, "name": "STARLINK-35579", "group": "last-30-days", "lat": -16.808783409458496, "lon": -75.41900113350262, "alt_km": 415.84281934055616, "timestamp": "2025-12-18T19:29:51.285574+00:00", "meta": {"OBJECT_NAME": "STARLINK-35579", "OBJECT_ID": "2025-268F", "EPOCH": "2025-12-18T00:04:00.227424", "MEAN_MOTION": 15.50586039, "ECCENTRICITY": 0.00017317, "INCLINATION": 43.0006, "RA_OF_ASC_NODE": 90.4028, "ARG_OF_PERICENTER": 264.7288, "MEAN_ANOMALY": 95.3375, "EPHEMERIS_TYPE": 0, "CLASSIFICATION_TYPE": "U", "NORAD_CAT_ID": 66562, "ELEMENT_SET_NO": 999, "REV_AT_EPOCH": 544, "BSTAR": 0.0012420253, "MEAN_MOTION_DOT": 0.00073226, "MEAN_MOTION_DDOT": 0}, "tle": {"line1": "1 66562U 25268F   25352.00278041  .00073226  00000+0  12420-2 0  9997", "line2": "2 66562  43.0006  90.4028 0001731 264.7288  95.3375 15.50586039  5449"}}, "geometry": {"type": "Point", "coordinates": [-75.41900113350262, -16.808783409458496]}}, {"type": "Feature", "properties": {"norad_id": 66563, "name": "STARLINK-35437", "group": "last-30-days", "lat": -19.34382339018245, "lon": -72.21046973008916, "alt_km": 416.2125574396932, "timestamp": "2025-12-18T19:29:51.285583+00:00", "meta": {"OBJECT_NAME": "STARLINK-35437", "OBJECT_ID": "2025-268G", "EPOCH": "2025-12-18T00:02:59.029440", "MEAN_MOTION": 15.50597611, "ECCENTRICITY": 0.00016674, "INCLINATION": 42.9987, "RA_OF_ASC_NODE": 90.3988, "ARG_OF_PERICENTER": 275.2457, "MEAN_ANOMALY": 84.8212, "EPHEMERIS_TYPE": 0, "CLASSIFICATION_TYPE": "U", "NORAD_CAT_ID": 66563, "ELEMENT_SET_NO": 999, "REV_AT_EPOCH": 544, "BSTAR": 0.0011024154, "MEAN_MOTION_DOT": 0.00064914, "MEAN_MOTION_DDOT": 0}, "tle": {"line1": "1 66563U 25268G   25352.00207210  .00064914  00000+0  11024-2 0  9991", "line2": "2 66563  42.9987  90.3988 0001667 275.2457  84.8212 15.50597611  5444"}}, "geometry": {"type": "Point", "coordinates": [-72.21046973008916, -19.34382339018245]}}, {"type": "Feature", "properties": {"norad_id": 66564, "name": "STARLINK-35358", "group": "last-30-days", "lat": -20.553356924968615, "lon": -70.62510316215968, "alt_km": 415.96614934158333, "timestamp": "2025-12-18T19:29:51.285596+00:00", "meta": {"OBJECT_NAME": "STARLINK-35358", "OBJECT_ID": "2025-268H", "EPOCH": "2025-12-18T00:02:29.171328", "MEAN_MOTION": 15.50596952, "ECCENTRICITY": 0.00023862, "INCLINATION": 43.0032, "RA_OF_ASC_NODE": 90.3946, "ARG_OF_PERICENTER": 270.3496, "MEAN_ANOMALY": 89.709, "EPHEMERIS_TYPE": 0, "CLASSIFICATION_TYPE": "U", "NORAD_CAT_ID": 66564, "ELEMENT_SET_NO": 999, "REV_AT_EPOCH": 544, "BSTAR": 0.0011847753, "MEAN_MOTION_DOT": 0.00069834, "MEAN_MOTION_DDOT": 0}, "tle": {"line1": "1 66564U 25268H   25352.00172652  .00069834  00000+0  11848-2 0  9993", "line2": "2 66564  43.0032  90.3946 0002386 270.3496  89.7090 15.50596952  5445"}}, "geometry": {"type": "Point", "coordinates": [-70.62510316215968, -20.553356924968615]}}, {"type": "Feature", "properties": {"norad_id": 66565, "name": "STARLINK-35893", "group": "last-30-days", "lat": -21.744151431148516, "lon": -69.01440006059079, "alt_km": 416.0516083169223, "timestamp": "2025-12-18T19:29:51.285606+00:00", "meta": {"OBJECT_NAME": "STARLINK-35893", "OBJECT_ID": "2025-268J", "EPOCH": "2025-12-18T00:01:59.584512", "MEAN_MOTION": 15.50595913, "ECCENTRICITY": 0.00021644, "INCLINATION": 43.0022, "RA_OF_ASC_NODE": 90.3916, "ARG_OF_PERICENTER": 269.1523, "MEAN_ANOMALY": 90.909, "EPHEMERIS_TYPE": 0, "CLASSIFICATION_TYPE": "U", "NORAD_CAT_ID": 66565, "ELEMENT_SET_NO": 999, "REV_AT_EPOCH": 544, "BSTAR": 0.0012222633, "MEAN_MOTION_DOT": 0.00072071, "MEAN_MOTION_DDOT": 0}, "tle": {"line1": "1 66565U 25268J   25352.00138408  .00072071  00000+0  12223-2 0  9990", "line2": "2 66565  43.0022  90.3916 0002164 269.1523  90.9090 15.50595913  5443"}}, "geometry": {"type": "Point", "coordinates": [-69.01440006059079, -21.744151431148516]}}, {"type": "Feature", "properties": {"norad_id": 66566, "name": "STARLINK-35871", "group": "last-30-days", "lat": -22.76515337682812, "lon": -67.59568861449472, "alt_km": 416.68494406458194, "timestamp": "2025-12-18T19:29:51.285616+00:00", "meta": {"OBJECT_NAME": "STARLINK-35871", "OBJECT_ID": "2025-268K", "EPOCH": "2025-12-18T00:00:02.000160", "MEAN_MOTION": 15.50546235, "ECCENTRICITY": 0.00015524, "INCLINATION": 43.001, "RA_OF_ASC_NODE": 90.3927, "ARG_OF_PERICENTER": 267.7288, "MEAN_ANOMALY": 86.6648, "EPHEMERIS_TYPE": 0, "CLASSIFICATION_TYPE": "U", "NORAD_CAT_ID": 66566, "ELEMENT_SET_NO": 999, "REV_AT_EPOCH": 551, "BSTAR": 0.00028776035, "MEAN_MOTION_DOT": 0.00016556, "MEAN_MOTION_DDOT": 0}, "tle": {"line1": "1 66566U 25268K   25352.00002315  .00016556  00000+0  28776-3 0  9995", "line2": "2 66566  43.0010  90.3927 0001552 267.7288  86.6648 15.50546235  5517"}}, "geometry": {"type": "Point", "coordinates": [-67.59568861449472, -22.76515337682812]}}, {"type": "Feature", "properties": {"norad_id": 66567, "name": "STARLINK-35825", "group": "last-30-days", "lat": -24.111121962917835, "lon": -65.65998801359116, "alt_km": 416.3212913332118, "timestamp": "2025-12-18T19:29:51.285626+00:00", "meta": {"OBJECT_NAME": "STARLINK-35825", "OBJECT_ID": "2025-268L", "EPOCH": "2025-12-18T00:01:00.568128", "MEAN_MOTION": 15.50603339, "ECCENTRICITY": 0.00014546, "INCLINATION": 42.9998, "RA_OF_ASC_NODE": 90.3853, "ARG_OF_PERICENTER": 270.9237, "MEAN_ANOMALY": 89.1456, "EPHEMERIS_TYPE": 0, "CLASSIFICATION_TYPE": "U", "NORAD_CAT_ID": 66567, "ELEMENT_SET_NO": 999, "REV_AT_EPOCH": 544, "BSTAR": 0.0015567358, "MEAN_MOTION_DOT": 0.00092146, "MEAN_MOTION_DDOT": 0}, "tle": {"line1": "1 66567U 25268L   25352.00070102  .00092146  00000+0  15567-2 0  9997", "line2": "2 66567  42.9998  90.3853 0001454 270.9237  89.1456 15.50603339  5446"}}, "geometry": {"type": "Point", "coordinates": [-65.65998801359116, -24.111121962917835]}}, {"type": "Feature", "properties": {"norad_id": 66568, "name": "STARLINK-35803", "group": "last-30-days", "lat": -25.246358890462346, "lon": -63.96671409255094, "alt_km": 416.8982164910203, "timestamp": "2025-12-18T19:29:51.285636+00:00", "meta": {"OBJECT_NAME": "STARLINK-35803", "OBJECT_ID": "2025-268M", "EPOCH": "2025-12-18T00:00:31.378752", "MEAN_MOTION": 15.50604278, "ECCENTRICITY": 2.905e-05, "INCLINATION": 42.9973, "RA_OF_ASC_NODE": 90.3815, "ARG_OF_PERICENTER": 304.0153, "MEAN_ANOMALY": 56.068, "EPHEMERIS_TYPE": 0, "CLASSIFICATION_TYPE": "U", "NORAD_CAT_ID": 66568, "ELEMENT_SET_NO": 999, "REV_AT_EPOCH": 544, "BSTAR": 0.0015659743, "MEAN_MOTION_DOT": 0.00092705, "MEAN_MOTION_DDOT": 0}, "tle": {"line1": "1 66568U 25268M   25352.00036318  .00092705  00000+0  15660-2 0  9994", "line2": "2 66568  42.9973  90.3815 0000290 304.0153  56.0680 15.50604278  5446"}}, "geometry": {"type": "Point", "coordinates": [-63.96671409255094, -25.246358890462346]}}, {"type": "Feature", "properties": {"norad_id": 66569, "name": "STARLINK-35835", "group": "last-30-days", "lat": -26.310624318697023, "lon": -62.322110699989096, "alt_km": 417.15800723552366, "timestamp": "2025-12-18T19:29:51.285650+00:00", "meta": {"OBJECT_NAME": "STARLINK-35835", "OBJECT_ID": "2025-268N", "EPOCH": "2025-12-18T04:38:17.741760", "MEAN_MOTION": 15.50619099, "ECCENTRICITY": 2.062e-05, "INCLINATION": 42.9974, "RA_OF_ASC_NODE": 89.2499, "ARG_OF_PERICENTER": 317.9673, "MEAN_ANOMALY": 42.1171, "EPHEMERIS_TYPE": 0, "CLASSIFICATION_TYPE": "U", "NORAD_CAT_ID": 66569, "ELEMENT_SET_NO": 999, "REV_AT_EPOCH": 547, "BSTAR": 0.0011190745, "MEAN_MOTION_DOT": 0.00065958, "MEAN_MOTION_DDOT": 0}, "tle": {"line1": "1 66569U 25268N   25352.19326090  .00065958  00000+0  11191-2 0  9999", "line2": "2 66569  42.9974  89.2499 0000206 317.9673  42.1171 15.50619099  5471"}}, "geometry": {"type": "Point", "coordinates": [-62.322110699989096, -26.310624318697023]}}]}